*******************************************************************************
Ephemeris / WWW_USER Mon Mar 10 07:30:06 2025 Pasadena, USA      / Horizons    
*******************************************************************************
Target body name: (2017 UX51)                     {source: JPL#22}
Center body name: Earth (399)                     {source: DE441}
Center-site name: Mauna Kea
*******************************************************************************
Start time      : A.D. 2018-Nov-22 03:51:00.0000 UT      
Stop  time      : A.D. 2018-Nov-22 16:25:00.0000 UT      
Step-size       : 1 minutes
*******************************************************************************
Target pole/equ : undefined
Target radii    : undefined                                                    
Center geodetic : 204.5278, 19.8260847, 4.21024   {E-lon(deg),Lat(deg),Alt(km)}
Center cylindric: 204.5278, 6006.35451, 2151.0229 {E-lon(deg),Dxy(km),Dz(km)}
Center pole/equ : ITRF93                          {East-longitude positive}
Center radii    : 6378.137, 6378.137, 6356.752 km {Equator_a, b, pole_c}       
Target primary  : Sun
Vis. interferer : MOON (R_eq= 1737.400) km        {source: DE441}
Rel. light bend : Sun                             {source: DE441}
Rel. lght bnd GM: 1.3271E+11 km^3/s^2                                          
Small-body perts: Yes                             {source: SB441-N16}
Atmos refraction: NO (AIRLESS)
RA format       : HMS
Time format     : CAL 
Calendar mode   : Mixed Julian/Gregorian
RTS-only print  : NO       
EOP file        : eop.250307.p250603                                           
EOP coverage    : DATA-BASED 1962-JAN-20 TO 2025-MAR-07. PREDICTS-> 2025-JUN-02
Units conversion: 1 au= 149597870.700 km, c= 299792.458 km/s, 1 day= 86400.0 s 
Table cut-offs 1: Elevation (-90.0deg=NO ),Airmass (>38.000=NO), Daylight (YES)
Table cut-offs 2: Solar elongation (  0.0,180.0=NO ),Local Hour Angle( 0.0=NO )
Table cut-offs 3: RA/DEC angular rate (     0.0=NO )                           
*******************************************************************************
Initial IAU76/J2000 heliocentric ecliptic osculating elements (au, days, deg.):
  EPOCH=  2458433.5 ! 2018-Nov-11.00 (TDB)         Residual RMS= .12444        
   EC= .7474905367293002   QR= 7.612253692784782   TP= 2459819.8104231078      
   OM= 217.7952286585891   W=  255.0338939179157   IN= 90.52400691057457       
  Equivalent ICRF heliocentric cartesian coordinates (au, au/d):
   X= 8.209785034050050E+00  Y= 6.297741083246843E+00  Z= 1.446459094674425E+00
  VX=-3.080259200599625E-03 VY=-2.498125597102637E-05 VZ=-6.110805734701701E-03
Asteroid physical parameters (km, seconds, rotational period in hours):        
   GM= n.a.                RAD= n.a.               ROTPER= n.a.                
   H= 11.                  G= .150                 B-V= n.a.                   
                           ALBEDO= n.a.            STYP= n.a.                  
*******************************************************************************
 Date__(UT)__HR:MN     R.A._________(ICRF)_________DEC
******************************************************
$$SOE
 2018-Nov-22 16:09 Nm  02 22 39.766541 +06 14 53.44097
 2018-Nov-22 16:10 Nm  02 22 39.753076 +06 14 53.28973
 2018-Nov-22 16:11 Nm  02 22 39.739611 +06 14 53.13849
 2018-Nov-22 16:12 Cm  02 22 39.726148 +06 14 52.98725
 2018-Nov-22 16:13 C   02 22 39.712685 +06 14 52.83601
 2018-Nov-22 16:14 C   02 22 39.699224 +06 14 52.68477
 2018-Nov-22 16:15 C   02 22 39.685764 +06 14 52.53354
 2018-Nov-22 16:16 C   02 22 39.672305 +06 14 52.38231
 2018-Nov-22 16:17 C   02 22 39.658847 +06 14 52.23108
 2018-Nov-22 16:18 C   02 22 39.645390 +06 14 52.07985
 2018-Nov-22 16:19 C   02 22 39.631934 +06 14 51.92862
 2018-Nov-22 16:20 C   02 22 39.618480 +06 14 51.77739
 2018-Nov-22 16:21 C   02 22 39.605026 +06 14 51.62617
 2018-Nov-22 16:22 C   02 22 39.591574 +06 14 51.47494
 2018-Nov-22 16:23 C   02 22 39.578123 +06 14 51.32372
 2018-Nov-22 16:24 C   02 22 39.564672 +06 14 51.17250
 2018-Nov-22 16:25 C   02 22 39.551223 +06 14 51.02129
